{
  "type": "FeatureCollection",
  "features": [
    {
      "type": "Feature",
      "properties": {
        "norad_id": 34079,
        "name": "IRIDIUM 33 DEB",
        "group": "iridium-33-debris",
        "lat": 79.25324090405456,
        "lon": 24.128778277983823,
        "alt_km": 611.0636951515917,
        "timestamp": "2025-12-21T14:40:48.303259+00:00",
        "meta_object_name": "IRIDIUM 33 DEB",
        "meta_object_id": "1997-051CN",
        "meta_epoch": "2025-12-21T01:41:36.962880",
        "meta_mean_motion": 14.83721839,
        "meta_eccentricity": 0.0004623,
        "meta_inclination": 86.3769,
        "meta_ra_of_asc_node": 4.8728,
        "meta_arg_of_pericenter": 338.2576,
        "meta_mean_anomaly": 93.2385,
        "meta_ephemeris_type": 0,
        "meta_classification_type": "U",
        "meta_norad_cat_id": 34079,
        "meta_element_set_no": 999,
        "meta_rev_at_epoch": 89101,
        "meta_bstar": 0.0010935828,
        "meta_mean_motion_dot": 9.07e-05,
        "meta_mean_motion_ddot": 0,
        "tle_line1": "1 34079U 97051CN  25355.07056670  .00009070  00000+0  10936-2 0  9992",
        "tle_line2": "2 34079  86.3769   4.8728 0004623 338.2576  93.2385 14.83721839891017"
      },
      "geometry": {
        "type": "Point",
        "coordinates": [
          24.128778277983823,
          79.25324090405456
        ]
      }
    },
    {
      "type": "Feature",
      "properties": {
        "norad_id": 34088,
        "name": "IRIDIUM 33 DEB",
        "group": "iridium-33-debris",
        "lat": 64.1345532984078,
        "lon": 34.14123790363211,
        "alt_km": 585.877136924677,
        "timestamp": "2025-12-21T14:40:48.303270+00:00",
        "meta_object_name": "IRIDIUM 33 DEB",
        "meta_object_id": "1997-051CX",
        "meta_epoch": "2025-12-21T01:45:27.066816",
        "meta_mean_motion": 14.91723187,
        "meta_eccentricity": 0.00066274,
        "meta_inclination": 86.3839,
        "meta_ra_of_asc_node": 26.8939,
        "meta_arg_of_pericenter": 150.3729,
        "meta_mean_anomaly": 264.499,
        "meta_ephemeris_type": 0,
        "meta_classification_type": "U",
        "meta_norad_cat_id": 34088,
        "meta_element_set_no": 999,
        "meta_rev_at_epoch": 88866,
        "meta_bstar": 0.001445423,
        "meta_mean_motion_dot": 0.00014591,
        "meta_mean_motion_ddot": 0,
        "tle_line1": "1 34088U 97051CX  25355.07322994  .00014591  00000+0  14454-2 0  9990",
        "tle_line2": "2 34088  86.3839  26.8939 0006627 150.3729 264.4990 14.91723187888660"
      },
      "geometry": {
        "type": "Point",
        "coordinates": [
          34.14123790363211,
          64.1345532984078
        ]
      }
    },
    {
      "type": "Feature",
      "properties": {
        "norad_id": 34091,
        "name": "IRIDIUM 33 DEB",
        "group": "iridium-33-debris",
        "lat": -50.56567534355867,
        "lon": 58.30732277583332,
        "alt_km": 612.7443585950605,
        "timestamp": "2025-12-21T14:40:48.303281+00:00",
        "meta_object_name": "IRIDIUM 33 DEB",
        "meta_object_id": "1997-051DA",
        "meta_epoch": "2025-12-21T05:11:15.310752",
        "meta_mean_motion": 14.82383169,
        "meta_eccentricity": 0.00341378,
        "meta_inclination": 86.3414,
        "meta_ra_of_asc_node": 62.9508,
        "meta_arg_of_pericenter": 262.7173,
        "meta_mean_anomaly": 97.0169,
        "meta_ephemeris_type": 0,
        "meta_classification_type": "U",
        "meta_norad_cat_id": 34091,
        "meta_element_set_no": 999,
        "meta_rev_at_epoch": 87992,
        "meta_bstar": 0.0035696675,
        "meta_mean_motion_dot": 0.00028976,
        "meta_mean_motion_ddot": 0,
        "tle_line1": "1 34091U 97051DA  25355.21614943  .00028976  00000+0  35697-2 0  9992",
        "tle_line2": "2 34091  86.3414  62.9508 0034137 262.7173  97.0169 14.82383169879923"
      },
      "geometry": {
        "type": "Point",
        "coordinates": [
          58.30732277583332,
          -50.56567534355867
        ]
      }
    },
    {
      "type": "Feature",
      "properties": {
        "norad_id": 34097,
        "name": "IRIDIUM 33 DEB",
        "group": "iridium-33-debris",
        "lat": 51.565065939044075,
        "lon": 172.68750846864626,
        "alt_km": 823.7843274415909,
        "timestamp": "2025-12-21T14:40:48.303291+00:00",
        "meta_object_name": "IRIDIUM 33 DEB",
        "meta_object_id": "1997-051DG",
        "meta_epoch": "2025-12-21T00:41:41.456256",
        "meta_mean_motion": 14.34837359,
        "meta_eccentricity": 0.00816512,
        "meta_inclination": 86.2,
        "meta_ra_of_asc_node": 357.7488,
        "meta_arg_of_pericenter": 335.0527,
        "meta_mean_anomaly": 24.6731,
        "meta_ephemeris_type": 0,
        "meta_classification_type": "U",
        "meta_norad_cat_id": 34097,
        "meta_element_set_no": 999,
        "meta_rev_at_epoch": 87238,
        "meta_bstar": 0.0010064048,
        "meta_mean_motion_dot": 2.983e-05,
        "meta_mean_motion_ddot": 0,
        "tle_line1": "1 34097U 97051DG  25355.02895204  .00002983  00000+0  10064-2 0  9999",
        "tle_line2": "2 34097  86.2000 357.7488 0081651 335.0527  24.6731 14.34837359872387"
      },
      "geometry": {
        "type": "Point",
        "coordinates": [
          172.68750846864626,
          51.565065939044075
        ]
      }
    },
    {
      "type": "Feature",
      "properties": {
        "norad_id": 34145,
        "name": "IRIDIUM 33 DEB",
        "group": "iridium-33-debris",
        "lat": -82.76105722119982,
        "lon": -62.8653530142157,
        "alt_km": 792.3379664364347,
        "timestamp": "2025-12-21T14:40:48.303303+00:00",
        "meta_object_name": "IRIDIUM 33 DEB",
        "meta_object_id": "1997-051DY",
        "meta_epoch": "2025-12-21T05:04:45.816960",
        "meta_mean_motion": 14.42343688,
        "meta_eccentricity": 0.00556995,
        "meta_inclination": 86.2119,
        "meta_ra_of_asc_node": 328.7528,
        "meta_arg_of_pericenter": 66.9145,
        "meta_mean_anomaly": 293.7913,
        "meta_ephemeris_type": 0,
        "meta_classification_type": "U",
        "meta_norad_cat_id": 34145,
        "meta_element_set_no": 999,
        "meta_rev_at_epoch": 87760,
        "meta_bstar": 0.00087697846,
        "meta_mean_motion_dot": 2.971e-05,
        "meta_mean_motion_ddot": 0,
        "tle_line1": "1 34145U 97051DY  25355.21164140  .00002971  00000+0  87698-3 0  9997",
        "tle_line2": "2 34145  86.2119 328.7528 0055699  66.9145 293.7913 14.42343688877601"
      },
      "geometry": {
        "type": "Point",
        "coordinates": [
          -62.8653530142157,
          -82.76105722119982
        ]
      }
    },
    {
      "type": "Feature",
      "properties": {
        "norad_id": 34146,
        "name": "IRIDIUM 33 DEB",
        "group": "iridium-33-debris",
        "lat": 50.365508986495996,
        "lon": 161.37941283062838,
        "alt_km": 715.1106211656597,
        "timestamp": "2025-12-21T14:40:48.303313+00:00",
        "meta_object_name": "IRIDIUM 33 DEB",
        "meta_object_id": "1997-051DZ",
        "meta_epoch": "2025-12-20T10:36:37.304352",
        "meta_mean_motion": 14.49095208,
        "meta_eccentricity": 0.00262607,
        "meta_inclination": 86.283,
        "meta_ra_of_asc_node": 346.3974,
        "meta_arg_of_pericenter": 194.7947,
        "meta_mean_anomaly": 317.4256,
        "meta_ephemeris_type": 0,
        "meta_classification_type": "U",
        "meta_norad_cat_id": 34146,
        "meta_element_set_no": 999,
        "meta_rev_at_epoch": 88218,
        "meta_bstar": 0.00059944717,
        "meta_mean_motion_dot": 2.307e-05,
        "meta_mean_motion_ddot": 0,
        "tle_line1": "1 34146U 97051DZ  25354.44209843  .00002307  00000+0  59945-3 0  9999",
        "tle_line2": "2 34146  86.2830 346.3974 0026260 194.7947 317.4256 14.49095208882187"
      },
      "geometry": {
        "type": "Point",
        "coordinates": [
          161.37941283062838,
          50.365508986495996
        ]
      }
    },
    {
      "type": "Feature",
      "properties": {
        "norad_id": 34159,
        "name": "IRIDIUM 33 DEB",
        "group": "iridium-33-debris",
        "lat": -47.113153820363436,
        "lon": -131.60081780799615,
        "alt_km": 754.0803936426219,
        "timestamp": "2025-12-21T14:40:48.303324+00:00",
        "meta_object_name": "IRIDIUM 33 DEB",
        "meta_object_id": "1997-051EN",
        "meta_epoch": "2025-12-21T03:36:30.706560",
        "meta_mean_motion": 14.38512066,
        "meta_eccentricity": 0.00260619,
        "meta_inclination": 86.3499,
        "meta_ra_of_asc_node": 44.6551,
        "meta_arg_of_pericenter": 258.1061,
        "meta_mean_anomaly": 101.7214,
        "meta_ephemeris_type": 0,
        "meta_classification_type": "U",
        "meta_norad_cat_id": 34159,
        "meta_element_set_no": 999,
        "meta_rev_at_epoch": 88080,
        "meta_bstar": 0.00026666703,
        "meta_mean_motion_dot": 8.37e-06,
        "meta_mean_motion_ddot": 0,
        "tle_line1": "1 34159U 97051EN  25355.15035540  .00000837  00000+0  26667-3 0  9994",
        "tle_line2": "2 34159  86.3499  44.6551 0026061 258.1061 101.7214 14.38512066880802"
      },
      "geometry": {
        "type": "Point",
        "coordinates": [
          -131.60081780799615,
          -47.113153820363436
        ]
      }
    }
  ]
}